STARLINK-1789           
1 46690U 20073W   25277.71977454  .00133336  00000+0  35988-2 0  9997
2 46690  53.0536 208.4719 0004293 128.6328 231.5059 15.36810521273805
STARLINK-1790           
1 46691U 20073X   25277.83441873  .00005998  00000+0  42121-3 0  9992
2 46691  53.0515 221.2806 0002204  87.2764 272.8477 15.06399889273636
STARLINK-1795           
1 46696U 20073AC  25277.81414032  .00017550  00000+0  11941-2 0  9994
2 46696  53.0537 201.3719 0001473  85.8899 274.2258 15.06403217273912
STARLINK-1797           
1 46698U 20073AE  25277.86029376  .00009026  00000+0  62399-3 0  9997
2 46698  53.0535 221.7436 0001494 100.1967 259.9190 15.06405028273630
STARLINK-1799           
1 46699U 20073AF  25277.87495538 -.00003311  00000+0 -20358-3 0  9998
2 46699  53.0540 221.0958 0000738  53.0164 307.0892 15.06388900273648
STARLINK-1800           
1 46700U 20073AG  25277.87911477  .00002596  00000+0  19317-3 0  9991
2 46700  53.0511 236.0747 0001455  95.9798 264.1357 15.06393833273433
STARLINK-1801           
1 46701U 20073AH  25277.84547000  .00001957  00000+0  15025-3 0  9998
2 46701  53.0532 221.2290 0001450  93.8705 266.2450 15.06394457273649
STARLINK-1802           
1 46702U 20073AJ  25277.52664426  .00000326  00000+0  40799-4 0  9992
2 46702  53.0530 202.6586 0001916  80.8275 279.2931 15.06396573273878
STARLINK-1805           
1 46705U 20073AM  25277.88279926  .00002693  00000+0  19966-3 0  9991
2 46705  53.0528 236.0623 0001737  89.6853 270.4335 15.06393209273437
STARLINK-1807           
1 46706U 20073AN  25277.87523272  .00058477  00000+0  33883-2 0  9991
2 46706  53.0509 219.8920 0007074  55.3637 304.8020 15.11643629273664
STARLINK-1810           
1 46709U 20073AR  25276.59642384  .00004582  00000+0  32632-3 0  9998
2 46709  53.0532 241.9622 0001270  83.7488 276.3646 15.06398947273233
STARLINK-1814           
1 46712U 20073AU  25277.91667823  .01609510  00000+0  50300-1 0  9997
2 46712  53.0543 220.1883 0001034  99.3243 103.1184 15.29568844  5706
STARLINK-1815           
1 46713U 20073AV  25277.82610529  .00003958  00000+0  28454-3 0  9999
2 46713  53.0519 221.3074 0002016  85.3176 274.8043 15.06392100273630
STARLINK-1816           
1 46714U 20073AW  25277.88233552 -.00002682  00000+0 -16128-3 0  9993
2 46714  53.0546 221.0626 0001504  99.2238 260.8921 15.06383336273647
STARLINK-1817           
1 46715U 20073AX  25277.81229657  .00005539  00000+0  39020-3 0  9996
2 46715  53.0542 221.3812 0001641  97.4161 262.7015 15.06425816273635
STARLINK-1820           
1 46717U 20073AZ  25277.51788752  .00097173  00000+0  28209-2 0  9992
2 46717  53.0571 199.1760 0011428  92.0445 268.1865 15.34665535273923
STARLINK-1821           
1 46718U 20073BA  25277.84657065  .00082153  00000+0  37984-2 0  9993
2 46718  53.0490 229.6767 0005328  34.5783 325.5557 15.19449000273520
