[{"OBJECT_NAME":"STARLINK-1789","OBJECT_ID":"2020-073W","EPOCH":"2025-10-04T17:16:28.520256","MEAN_MOTION":15.36810521,"ECCENTRICITY":0.0004293,"INCLINATION":53.0536,"RA_OF_ASC_NODE":208.4719,"ARG_OF_PERICENTER":128.6328,"MEAN_ANOMALY":231.5059,"EPHEMERIS_TYPE":0,"CLASSIFICATION_TYPE":"U","NORAD_CAT_ID":46690,"ELEMENT_SET_NO":999,"REV_AT_EPOCH":27380,"BSTAR":0.0035988,"MEAN_MOTION_DOT":0.00133336,"MEAN_MOTION_DDOT":0},{"OBJECT_NAME":"STARLINK-1790","OBJECT_ID":"2020-073X","EPOCH":"2025-10-04T20:01:33.778272","MEAN_MOTION":15.06399889,"ECCENTRICITY":0.0002204,"INCLINATION":53.0515,"RA_OF_ASC_NODE":221.2806,"ARG_OF_PERICENTER":87.2764,"MEAN_ANOMALY":272.8477,"EPHEMERIS_TYPE":0,"CLASSIFICATION_TYPE":"U","NORAD_CAT_ID":46691,"ELEMENT_SET_NO":999,"REV_AT_EPOCH":27363,"BSTAR":0.00042121,"MEAN_MOTION_DOT":5.998e-5,"MEAN_MOTION_DDOT":0},{"OBJECT_NAME":"STARLINK-1795","OBJECT_ID":"2020-073AC","EPOCH":"2025-10-04T19:32:21.723648","MEAN_MOTION":15.06403217,"ECCENTRICITY":0.0001473,"INCLINATION":53.0537,"RA_OF_ASC_NODE":201.3719,"ARG_OF_PERICENTER":85.8899,"MEAN_ANOMALY":274.2258,"EPHEMERIS_TYPE":0,"CLASSIFICATION_TYPE":"U","NORAD_CAT_ID":46696,"ELEMENT_SET_NO":999,"REV_AT_EPOCH":27391,"BSTAR":0.0011941,"MEAN_MOTION_DOT":0.0001755,"MEAN_MOTION_DDOT":0},{"OBJECT_NAME":"STARLINK-1797","OBJECT_ID":"2020-073AE","EPOCH":"2025-10-04T20:38:49.380864","MEAN_MOTION":15.06405028,"ECCENTRICITY":0.0001494,"INCLINATION":53.0535,"RA_OF_ASC_NODE":221.7436,"ARG_OF_PERICENTER":100.1967,"MEAN_ANOMALY":259.919,"EPHEMERIS_TYPE":0,"CLASSIFICATION_TYPE":"U","NORAD_CAT_ID":46698,"ELEMENT_SET_NO":999,"REV_AT_EPOCH":27363,"BSTAR":0.00062399,"MEAN_MOTION_DOT":9.026e-5,"MEAN_MOTION_DDOT":0},{"OBJECT_NAME":"STARLINK-1799","OBJECT_ID":"2020-073AF","EPOCH":"2025-10-04T20:59:56.144832","MEAN_MOTION":15.063889,"ECCENTRICITY":7.38e-5,"INCLINATION":53.054,"RA_OF_ASC_NODE":221.0958,"ARG_OF_PERICENTER":53.0164,"MEAN_ANOMALY":307.0892,"EPHEMERIS_TYPE":0,"CLASSIFICATION_TYPE":"U","NORAD_CAT_ID":46699,"ELEMENT_SET_NO":999,"REV_AT_EPOCH":27364,"BSTAR":-0.00020358,"MEAN_MOTION_DOT":-3.311e-5,"MEAN_MOTION_DDOT":0},{"OBJECT_NAME":"STARLINK-1800","OBJECT_ID":"2020-073AG","EPOCH":"2025-10-04T21:05:55.516128","MEAN_MOTION":15.06393833,"ECCENTRICITY":0.0001455,"INCLINATION":53.0511,"RA_OF_ASC_NODE":236.0747,"ARG_OF_PERICENTER":95.9798,"MEAN_ANOMALY":264.1357,"EPHEMERIS_TYPE":0,"CLASSIFICATION_TYPE":"U","NORAD_CAT_ID":46700,"ELEMENT_SET_NO":999,"REV_AT_EPOCH":27343,"BSTAR":0.00019317,"MEAN_MOTION_DOT":2.596e-5,"MEAN_MOTION_DDOT":0},{"OBJECT_NAME":"STARLINK-1801","OBJECT_ID":"2020-073AH","EPOCH":"2025-10-04T20:17:28.608000","MEAN_MOTION":15.06394457,"ECCENTRICITY":0.000145,"INCLINATION":53.0532,"RA_OF_ASC_NODE":221.229,"ARG_OF_PERICENTER":93.8705,"MEAN_ANOMALY":266.245,"EPHEMERIS_TYPE":0,"CLASSIFICATION_TYPE":"U","NORAD_CAT_ID":46701,"ELEMENT_SET_NO":999,"REV_AT_EPOCH":27364,"BSTAR":0.00015025,"MEAN_MOTION_DOT":1.957e-5,"MEAN_MOTION_DDOT":0},{"OBJECT_NAME":"STARLINK-1802","OBJECT_ID":"2020-073AJ","EPOCH":"2025-10-04T12:38:22.064064","MEAN_MOTION":15.06396573,"ECCENTRICITY":0.0001916,"INCLINATION":53.053,"RA_OF_ASC_NODE":202.6586,"ARG_OF_PERICENTER":80.8275,"MEAN_ANOMALY":279.2931,"EPHEMERIS_TYPE":0,"CLASSIFICATION_TYPE":"U","NORAD_CAT_ID":46702,"ELEMENT_SET_NO":999,"REV_AT_EPOCH":27387,"BSTAR":4.0799e-5,"MEAN_MOTION_DOT":3.26e-6,"MEAN_MOTION_DDOT":0},{"OBJECT_NAME":"STARLINK-1805","OBJECT_ID":"2020-073AM","EPOCH":"2025-10-04T21:11:13.856064","MEAN_MOTION":15.06393209,"ECCENTRICITY":0.0001737,"INCLINATION":53.0528,"RA_OF_ASC_NODE":236.0623,"ARG_OF_PERICENTER":89.6853,"MEAN_ANOMALY":270.4335,"EPHEMERIS_TYPE":0,"CLASSIFICATION_TYPE":"U","NORAD_CAT_ID":46705,"ELEMENT_SET_NO":999,"REV_AT_EPOCH":27343,"BSTAR":0.00019966,"MEAN_MOTION_DOT":2.693e-5,"MEAN_MOTION_DDOT":0},{"OBJECT_NAME":"STARLINK-1807","OBJECT_ID":"2020-073AN","EPOCH":"2025-10-04T21:00:20.107008","MEAN_MOTION":15.11643629,"ECCENTRICITY":0.0007074,"INCLINATION":53.0509,"RA_OF_ASC_NODE":219.892,"ARG_OF_PERICENTER":55.3637,"MEAN_ANOMALY":304.802,"EPHEMERIS_TYPE":0,"CLASSIFICATION_TYPE":"U","NORAD_CAT_ID":46706,"ELEMENT_SET_NO":999,"REV_AT_EPOCH":27366,"BSTAR":0.0033883,"MEAN_MOTION_DOT":0.00058477,"MEAN_MOTION_DDOT":0},{"OBJECT_NAME":"STARLINK-1810","OBJECT_ID":"2020-073AR","EPOCH":"2025-10-03T14:18:51.019776","MEAN_MOTION":15.06398947,"ECCENTRICITY":0.000127,"INCLINATION":53.0532,"RA_OF_ASC_NODE":241.9622,"ARG_OF_PERICENTER":83.7488,"MEAN_ANOMALY":276.3646,"EPHEMERIS_TYPE":0,"CLASSIFICATION_TYPE":"U","NORAD_CAT_ID":46709,"ELEMENT_SET_NO":999,"REV_AT_EPOCH":27323,"BSTAR":0.00032631886,"MEAN_MOTION_DOT":4.582e-5,"MEAN_MOTION_DDOT":0},{"OBJECT_NAME":"STARLINK-1814","OBJECT_ID":"2020-073AU","EPOCH":"2025-10-04T22:00:00.999072","MEAN_MOTION":15.29568844,"ECCENTRICITY":0.0001034,"INCLINATION":53.0543,"RA_OF_ASC_NODE":220.1883,"ARG_OF_PERICENTER":99.3243,"MEAN_ANOMALY":103.1184,"EPHEMERIS_TYPE":0,"CLASSIFICATION_TYPE":"U","NORAD_CAT_ID":46712,"ELEMENT_SET_NO":999,"REV_AT_EPOCH":570,"BSTAR":0.0503,"MEAN_MOTION_DOT":0.0160951,"MEAN_MOTION_DDOT":0},{"OBJECT_NAME":"STARLINK-1815","OBJECT_ID":"2020-073AV","EPOCH":"2025-10-04T19:49:35.497056","MEAN_MOTION":15.063921,"ECCENTRICITY":0.0002016,"INCLINATION":53.0519,"RA_OF_ASC_NODE":221.3074,"ARG_OF_PERICENTER":85.3176,"MEAN_ANOMALY":274.8043,"EPHEMERIS_TYPE":0,"CLASSIFICATION_TYPE":"U","NORAD_CAT_ID":46713,"ELEMENT_SET_NO":999,"REV_AT_EPOCH":27363,"BSTAR":0.00028454,"MEAN_MOTION_DOT":3.958e-5,"MEAN_MOTION_DDOT":0},{"OBJECT_NAME":"STARLINK-1816","OBJECT_ID":"2020-073AW","EPOCH":"2025-10-04T21:10:33.788928","MEAN_MOTION":15.06383336,"ECCENTRICITY":0.0001504,"INCLINATION":53.0546,"RA_OF_ASC_NODE":221.0626,"ARG_OF_PERICENTER":99.2238,"MEAN_ANOMALY":260.8921,"EPHEMERIS_TYPE":0,"CLASSIFICATION_TYPE":"U","NORAD_CAT_ID":46714,"ELEMENT_SET_NO":999,"REV_AT_EPOCH":27364,"BSTAR":-0.00016128,"MEAN_MOTION_DOT":-2.682e-5,"MEAN_MOTION_DDOT":0},{"OBJECT_NAME":"STARLINK-1817","OBJECT_ID":"2020-073AX","EPOCH":"2025-10-04T19:29:42.423648","MEAN_MOTION":15.06425816,"ECCENTRICITY":0.0001641,"INCLINATION":53.0542,"RA_OF_ASC_NODE":221.3812,"ARG_OF_PERICENTER":97.4161,"MEAN_ANOMALY":262.7015,"EPHEMERIS_TYPE":0,"CLASSIFICATION_TYPE":"U","NORAD_CAT_ID":46715,"ELEMENT_SET_NO":999,"REV_AT_EPOCH":27363,"BSTAR":0.0003902,"MEAN_MOTION_DOT":5.539e-5,"MEAN_MOTION_DDOT":0},{"OBJECT_NAME":"STARLINK-1820","OBJECT_ID":"2020-073AZ","EPOCH":"2025-10-04T12:25:45.481728","MEAN_MOTION":15.34665535,"ECCENTRICITY":0.0011428,"INCLINATION":53.0571,"RA_OF_ASC_NODE":199.176,"ARG_OF_PERICENTER":92.0445,"MEAN_ANOMALY":268.1865,"EPHEMERIS_TYPE":0,"CLASSIFICATION_TYPE":"U","NORAD_CAT_ID":46717,"ELEMENT_SET_NO":999,"REV_AT_EPOCH":27392,"BSTAR":0.0028209,"MEAN_MOTION_DOT":0.00097173,"MEAN_MOTION_DDOT":0},{"OBJECT_NAME":"STARLINK-1821","OBJECT_ID":"2020-073BA","EPOCH":"2025-10-04T20:19:03.704160","MEAN_MOTION":15.19449,"ECCENTRICITY":0.0005328,"INCLINATION":53.049,"RA_OF_ASC_NODE":229.6767,"ARG_OF_PERICENTER":34.5783,"MEAN_ANOMALY":325.5557,"EPHEMERIS_TYPE":0,"CLASSIFICATION_TYPE":"U","NORAD_CAT_ID":46718,"ELEMENT_SET_NO":999,"REV_AT_EPOCH":27352,"BSTAR":0.0037984,"MEAN_MOTION_DOT":0.00082153,"MEAN_MOTION_DDOT":0}]
